0 FENGYUN 1C DEB
1 33686U 99025DFX 13281.52467275  .00003272  00000-0  93731-3 0  2829
2 33686 098.8575 024.6430 0099205 318.4155 041.1415 14.42885735316598
0 FENGYUN 1C DEB
1 33686U 99025DFX 13283.05021511  .00003345  00000-0  95894-3 0  2832
2 33686 098.8638 026.2449 0098015 315.3504 043.9873 14.42897625316812
0 FENGYUN 1C DEB
1 33686U 99025DFX 13285.47724344  .00003432  00000-0  98032-3 0  2849
2 33686 098.8589 028.7545 0100409 308.1287 051.1526 14.42917370317165
0 FENGYUN 1C DEB
1 33686U 99025DFX 13286.51737806  .00003463  00000-0  99235-3 0  2853
2 33686 098.8581 029.8392 0097375 303.6499 055.6012 14.42925665317313
0 FENGYUN 1C DEB
1 33686U 99025DFX 13287.07210982  .00003574  00000-0  10276-2 0  2867
2 33686 098.8599 030.4306 0093865 302.5434 056.7132 14.42932436317399
0 FENGYUN 1C DEB
1 33686U 99025DFX 13287.14144440  .00003613  00000-0  10426-2 0  2872
2 33686 098.8613 030.5100 0090497 302.2799 056.9942 14.42934101317402
0 FENGYUN 1C DEB
1 33686U 99025DFX 13289.08302259  .00003732  00000-0  10746-2 0  2889
2 33686 098.8595 032.5288 0091803 297.7180 061.5193 14.42951805317684
0 FENGYUN 1C DEB
1 33686U 99025DFX 13290.05379626  .00003901  00000-0  11286-2 0  2899
2 33686 098.8652 033.5509 0086508 293.5488 065.8296 14.42964790317820
0 FENGYUN 1C DEB
1 33686U 99025DFX 13291.50992455  .00004109  00000-0  11737-2 0  2905
2 33686 098.8558 035.0403 0097143 291.4414 067.7995 14.42983593318031
0 FENGYUN 1C DEB
1 33686U 99025DFX 13294.07546929  .00006890  00000-0  19613-2 0  2912
2 33686 098.8648 037.7149 0094108 280.8422 078.8568 14.43051565318402
